*******************************************************************************
Ephemeris / WWW_USER Mon Mar 24 09:13:35 2025 Pasadena, USA      / Horizons    
*******************************************************************************
Target body name: (2013 AZ60)                     {source: JPL#49}
Center body name: Earth (399)                     {source: DE441}
Center-site name: Mauna Kea
*******************************************************************************
Start time      : A.D. 2018-Nov-28 03:51:00.0000 UT      
Stop  time      : A.D. 2018-Nov-28 16:28:00.0000 UT      
Step-size       : 1 minutes
*******************************************************************************
Target pole/equ : undefined
Target radii    : undefined                                                    
Center geodetic : 204.5278, 19.8260847, 4.21024   {E-lon(deg),Lat(deg),Alt(km)}
Center cylindric: 204.5278, 6006.35451, 2151.0229 {E-lon(deg),Dxy(km),Dz(km)}
Center pole/equ : ITRF93                          {East-longitude positive}
Center radii    : 6378.137, 6378.137, 6356.752 km {Equator_a, b, pole_c}       
Target primary  : Sun
Vis. interferer : MOON (R_eq= 1737.400) km        {source: DE441}
Rel. light bend : Sun                             {source: DE441}
Rel. lght bnd GM: 1.3271E+11 km^3/s^2                                          
Small-body perts: Yes                             {source: SB441-N16}
Atmos refraction: NO (AIRLESS)
RA format       : HMS
Time format     : CAL 
Calendar mode   : Mixed Julian/Gregorian
RTS-only print  : NO       
EOP file        : eop.250321.p250617                                           
EOP coverage    : DATA-BASED 1962-JAN-20 TO 2025-MAR-21. PREDICTS-> 2025-JUN-16
Units conversion: 1 au= 149597870.700 km, c= 299792.458 km/s, 1 day= 86400.0 s 
Table cut-offs 1: Elevation (-90.0deg=NO ),Airmass (>38.000=NO), Daylight (YES)
Table cut-offs 2: Solar elongation (  0.0,180.0=NO ),Local Hour Angle( 0.0=NO )
Table cut-offs 3: RA/DEC angular rate (     0.0=NO )                           
*******************************************************************************
Initial IAU76/J2000 heliocentric ecliptic osculating elements (au, days, deg.):
  EPOCH=  2457400.5 ! 2016-Jan-13.00 (TDB)         Residual RMS= .1326         
   EC= .9891456016948332   QR= 7.910280980491398   TP= 2456989.3208761909      
   OM= 349.2102750469422   W=  158.2320149266156   IN= 16.53862471305098       
  Equivalent ICRF heliocentric cartesian coordinates (au, au/d):
   X=-8.215502218447208E+00  Y= 1.083611838195559E+00  Z= 3.298265209415168E-01
  VX=-2.822922434188891E-03 VY=-6.008885131743716E-03 VZ=-5.184670886061429E-03
Asteroid physical parameters (km, seconds, rotational period in hours):        
   GM= n.a.                RAD= n.a.               ROTPER= 9.39                
   H= 10.3                 G= .150                 B-V= n.a.                   
                           ALBEDO= n.a.            STYP= n.a.                  
*******************************************************************************
 Date__(UT)__HR:MN     R.A._________(ICRF)_________DEC
******************************************************
$$SOE
 2018-Nov-28 14:06  m  14 05 41.867282 -24 43 41.43317
 2018-Nov-28 14:07  m  14 05 41.882976 -24 43 41.54769
 2018-Nov-28 14:08  m  14 05 41.898669 -24 43 41.66222
 2018-Nov-28 14:09  m  14 05 41.914361 -24 43 41.77674
 2018-Nov-28 14:10  m  14 05 41.930052 -24 43 41.89126
 2018-Nov-28 14:11  m  14 05 41.945742 -24 43 42.00578
 2018-Nov-28 14:12  m  14 05 41.961431 -24 43 42.12030
 2018-Nov-28 14:13  m  14 05 41.977119 -24 43 42.23482
 2018-Nov-28 14:14  m  14 05 41.992806 -24 43 42.34934
 2018-Nov-28 14:15  m  14 05 42.008492 -24 43 42.46386
 2018-Nov-28 14:16  m  14 05 42.024176 -24 43 42.57838
 2018-Nov-28 14:17  m  14 05 42.039860 -24 43 42.69290
 2018-Nov-28 14:18  m  14 05 42.055543 -24 43 42.80742
 2018-Nov-28 14:19  m  14 05 42.071225 -24 43 42.92194
 2018-Nov-28 14:20  m  14 05 42.086906 -24 43 43.03645
 2018-Nov-28 14:21  m  14 05 42.102586 -24 43 43.15097
 2018-Nov-28 14:22  m  14 05 42.118265 -24 43 43.26549
 2018-Nov-28 14:23  m  14 05 42.133943 -24 43 43.38000
 2018-Nov-28 14:24  m  14 05 42.149620 -24 43 43.49452
 2018-Nov-28 14:25  r  14 05 42.165296 -24 43 43.60903
 2018-Nov-28 14:26  m  14 05 42.180971 -24 43 43.72354
 2018-Nov-28 14:27  m  14 05 42.196645 -24 43 43.83806
 2018-Nov-28 14:28  m  14 05 42.212318 -24 43 43.95257
 2018-Nov-28 14:29  m  14 05 42.227989 -24 43 44.06708
 2018-Nov-28 14:30  m  14 05 42.243660 -24 43 44.18159
 2018-Nov-28 14:31  m  14 05 42.259330 -24 43 44.29610
 2018-Nov-28 14:32  m  14 05 42.274999 -24 43 44.41061
 2018-Nov-28 14:33  m  14 05 42.290667 -24 43 44.52512
 2018-Nov-28 14:34  m  14 05 42.306334 -24 43 44.63963
 2018-Nov-28 14:35  m  14 05 42.322000 -24 43 44.75413
 2018-Nov-28 14:36  m  14 05 42.337665 -24 43 44.86864
 2018-Nov-28 14:37  m  14 05 42.353329 -24 43 44.98314
 2018-Nov-28 14:38  m  14 05 42.368992 -24 43 45.09765
 2018-Nov-28 14:39  m  14 05 42.384654 -24 43 45.21215
 2018-Nov-28 14:40  m  14 05 42.400315 -24 43 45.32665
 2018-Nov-28 14:41  m  14 05 42.415975 -24 43 45.44115
 2018-Nov-28 14:42  m  14 05 42.431634 -24 43 45.55565
 2018-Nov-28 14:43  m  14 05 42.447292 -24 43 45.67015
 2018-Nov-28 14:44  m  14 05 42.462949 -24 43 45.78465
 2018-Nov-28 14:45  m  14 05 42.478605 -24 43 45.89914
 2018-Nov-28 14:46  m  14 05 42.494260 -24 43 46.01364
 2018-Nov-28 14:47  m  14 05 42.509914 -24 43 46.12813
 2018-Nov-28 14:48  m  14 05 42.525567 -24 43 46.24263
 2018-Nov-28 14:49  m  14 05 42.541219 -24 43 46.35712
 2018-Nov-28 14:50  m  14 05 42.556870 -24 43 46.47161
 2018-Nov-28 14:51  m  14 05 42.572520 -24 43 46.58610
 2018-Nov-28 14:52  m  14 05 42.588169 -24 43 46.70059
 2018-Nov-28 14:53  m  14 05 42.603817 -24 43 46.81507
 2018-Nov-28 14:54  m  14 05 42.619464 -24 43 46.92956
 2018-Nov-28 14:55  m  14 05 42.635111 -24 43 47.04404
 2018-Nov-28 14:56  m  14 05 42.650756 -24 43 47.15853
 2018-Nov-28 14:57  m  14 05 42.666400 -24 43 47.27301
 2018-Nov-28 14:58  m  14 05 42.682043 -24 43 47.38749
 2018-Nov-28 14:59  m  14 05 42.697686 -24 43 47.50197
 2018-Nov-28 15:00  m  14 05 42.713327 -24 43 47.61644
 2018-Nov-28 15:01  m  14 05 42.728967 -24 43 47.73092
 2018-Nov-28 15:02  m  14 05 42.744607 -24 43 47.84539
 2018-Nov-28 15:03  m  14 05 42.760245 -24 43 47.95987
 2018-Nov-28 15:04  m  14 05 42.775882 -24 43 48.07434
 2018-Nov-28 15:05  m  14 05 42.791519 -24 43 48.18881
 2018-Nov-28 15:06  m  14 05 42.807154 -24 43 48.30327
 2018-Nov-28 15:07  m  14 05 42.822789 -24 43 48.41774
 2018-Nov-28 15:08  m  14 05 42.838422 -24 43 48.53221
 2018-Nov-28 15:09  m  14 05 42.854055 -24 43 48.64667
 2018-Nov-28 15:10  m  14 05 42.869686 -24 43 48.76113
 2018-Nov-28 15:11  m  14 05 42.885317 -24 43 48.87559
 2018-Nov-28 15:12  m  14 05 42.900947 -24 43 48.99005
 2018-Nov-28 15:13  m  14 05 42.916575 -24 43 49.10450
 2018-Nov-28 15:14  m  14 05 42.932203 -24 43 49.21896
 2018-Nov-28 15:15  m  14 05 42.947830 -24 43 49.33341
 2018-Nov-28 15:16  m  14 05 42.963456 -24 43 49.44786
 2018-Nov-28 15:17  m  14 05 42.979081 -24 43 49.56231
 2018-Nov-28 15:18  m  14 05 42.994705 -24 43 49.67676
 2018-Nov-28 15:19  m  14 05 43.010328 -24 43 49.79121
 2018-Nov-28 15:20  m  14 05 43.025950 -24 43 49.90565
 2018-Nov-28 15:21 Am  14 05 43.041571 -24 43 50.02009
 2018-Nov-28 15:22 Am  14 05 43.057191 -24 43 50.13453
 2018-Nov-28 15:23 Am  14 05 43.072810 -24 43 50.24897
 2018-Nov-28 15:24 Am  14 05 43.088428 -24 43 50.36340
 2018-Nov-28 15:25 Am  14 05 43.104046 -24 43 50.47784
 2018-Nov-28 15:26 Am  14 05 43.119662 -24 43 50.59227
 2018-Nov-28 15:27 Am  14 05 43.135278 -24 43 50.70670
 2018-Nov-28 15:28 Am  14 05 43.150892 -24 43 50.82113
 2018-Nov-28 15:29 Am  14 05 43.166506 -24 43 50.93555
 2018-Nov-28 15:30 Am  14 05 43.182118 -24 43 51.04998
 2018-Nov-28 15:31 Am  14 05 43.197730 -24 43 51.16440
 2018-Nov-28 15:32 Am  14 05 43.213341 -24 43 51.27882
 2018-Nov-28 15:33 Am  14 05 43.228950 -24 43 51.39323
 2018-Nov-28 15:34 Am  14 05 43.244559 -24 43 51.50765
 2018-Nov-28 15:35 Am  14 05 43.260167 -24 43 51.62206
 2018-Nov-28 15:36 Am  14 05 43.275774 -24 43 51.73647
 2018-Nov-28 15:37 Am  14 05 43.291381 -24 43 51.85088
 2018-Nov-28 15:38 Am  14 05 43.306986 -24 43 51.96529
 2018-Nov-28 15:39 Am  14 05 43.322590 -24 43 52.07969
 2018-Nov-28 15:40 Am  14 05 43.338193 -24 43 52.19409
 2018-Nov-28 15:41 Am  14 05 43.353796 -24 43 52.30849
 2018-Nov-28 15:42 Am  14 05 43.369397 -24 43 52.42289
 2018-Nov-28 15:43 Am  14 05 43.384998 -24 43 52.53728
 2018-Nov-28 15:44 Am  14 05 43.400598 -24 43 52.65167
 2018-Nov-28 15:45 Am  14 05 43.416196 -24 43 52.76606
 2018-Nov-28 15:46 Am  14 05 43.431794 -24 43 52.88045
 2018-Nov-28 15:47 Am  14 05 43.447391 -24 43 52.99483
 2018-Nov-28 15:48 Nm  14 05 43.462987 -24 43 53.10921
 2018-Nov-28 15:49 Nm  14 05 43.478583 -24 43 53.22359
 2018-Nov-28 15:50 Nm  14 05 43.494177 -24 43 53.33797
 2018-Nov-28 15:51 Nm  14 05 43.509770 -24 43 53.45234
 2018-Nov-28 15:52 Nm  14 05 43.525363 -24 43 53.56672
 2018-Nov-28 15:53 Nm  14 05 43.540954 -24 43 53.68108
 2018-Nov-28 15:54 Nm  14 05 43.556545 -24 43 53.79545
 2018-Nov-28 15:55 Nm  14 05 43.572135 -24 43 53.90982
 2018-Nov-28 15:56 Nm  14 05 43.587724 -24 43 54.02418
 2018-Nov-28 15:57 Nm  14 05 43.603312 -24 43 54.13854
 2018-Nov-28 15:58 Nm  14 05 43.618899 -24 43 54.25289
 2018-Nov-28 15:59 Nm  14 05 43.634485 -24 43 54.36724
 2018-Nov-28 16:00 Nm  14 05 43.650070 -24 43 54.48159
 2018-Nov-28 16:01 Nm  14 05 43.665655 -24 43 54.59594
 2018-Nov-28 16:02 Nm  14 05 43.681238 -24 43 54.71029
 2018-Nov-28 16:03 Nm  14 05 43.696821 -24 43 54.82463
 2018-Nov-28 16:04 Nm  14 05 43.712403 -24 43 54.93897
 2018-Nov-28 16:05 Nm  14 05 43.727984 -24 43 55.05330
 2018-Nov-28 16:06 Nm  14 05 43.743564 -24 43 55.16764
 2018-Nov-28 16:07 Nm  14 05 43.759143 -24 43 55.28197
 2018-Nov-28 16:08 Nm  14 05 43.774722 -24 43 55.39630
